IONOSFERA-M 2           
1 61736U 24199B   26200.29657030 -.00000002  00000+0  18707-4 0  9999
2 61736  98.7128  73.0338 0000651 129.7769 230.3466 14.22762952135392
PRSC-EO1                
1 62725U 25012A   26200.30092311  .00003239  00000+0  16415-3 0  9997
2 62725  97.4209 272.1306 0007066 134.9509 225.2299 15.17649351 83066
BIOMASS                 
1 63772U 25090A   26200.08187774  .00000232  00000+0  49337-4 0  9999
2 63772  98.0750  26.9327 0001415  90.6799 269.4567 14.67534911 65366
GOSAT-GW (IBUKI GW)     
1 64694U 25141A   26200.30361662  .00000064  00000+0  19674-4 0  9999
2 64694  98.0564 137.0990 0001442  85.7008 274.4361 14.67554813 56553
IONOSFERA-M 3           
1 64876U 25155A   26200.27264016  .00000015  00000+0  26637-4 0  9990
2 64876  98.6043 161.3733 0002392 106.3958 253.7482 14.21491225 50967
IONOSFERA-M 4           
1 64877U 25155B   26200.30742639  .00000009  00000+0  23842-4 0  9995
2 64877  98.6042 161.3243 0001881  95.5003 264.6390 14.21493666 50965
MICROCARB               
1 64899U 25156A   26200.21895741  .00000251  00000+0  46927-4 0  9991
2 64899  98.0072 276.8644 0017933 158.2510 201.9463 14.72887681 52684
CO3D 3                  
1 64900U 25156B   26200.24333151  .00002116  00000+0  10084-3 0  9995
2 64900  97.4331 278.4758 0001760  93.8761 266.2675 15.20209739 54402
CO3D 4                  
1 64901U 25156C   26200.24348374  .00000910  00000+0  45166-4 0  9999
2 64901  97.4335 278.4758 0001926 148.1807 211.9545 15.20208731 54400
CO3D 2                  
1 64902U 25156D   26200.27595861  .00002003  00000+0  95665-4 0  9992
2 64902  97.4332 278.4068 0001174  91.5738 268.5632 15.20195135 54409
CO3D 1                  
1 64903U 25156E   26200.27611403  .00002032  00000+0  96980-4 0  9997
2 64903  97.4331 278.4068 0001306 101.8671 258.2711 15.20196811 54403
PRSC-S1                 
1 65055U 25164A   26200.15053873  .00002443  00000+0  17358-3 0  9990
2 65055  41.1302 107.7626 0007278 222.0172 138.0084 15.06654920 53250
SENTINEL-6B             
1 66514U 25264A   26200.01888776 -.00000055  00000+0  24712-4 0  9996
2 66514  66.0411  69.0646 0007844 268.6081  91.4036 12.80930222 31249
CAS500-3                
1 66655U 25274F   26200.21649322  .00000588  00000+0  69228-4 0  9998
2 66655  97.7433 127.5391 0005955  26.8009 333.3515 14.88388900 34919
CSG-3                   
1 67304U 26001A   26200.06402638  .00000108  00000+0  20138-4 0  9994
2 67304  97.8908  23.2063 0001873  97.7023 262.4403 14.82159223 29184
PRSC-E03                
1 68835U 26092A   26200.26375995  .00000999  00000+0  73082-4 0  9995
2 68835  38.0007 260.5100 0005040 276.2552  83.7636 15.06818693 12791
CAS500-2                
1 69013U 26100AK  26200.19804257  .00002907  00000+0  13903-3 0  9990
2 69013  97.3851  97.4379 0008028 236.6095 123.4372 15.19749984 11676
