OBJECT_NAME,OBJECT_ID,EPOCH,MEAN_MOTION,ECCENTRICITY,INCLINATION,RA_OF_ASC_NODE,ARG_OF_PERICENTER,MEAN_ANOMALY,EPHEMERIS_TYPE,CLASSIFICATION_TYPE,NORAD_CAT_ID,ELEMENT_SET_NO,REV_AT_EPOCH,BSTAR,MEAN_MOTION_DOT,MEAN_MOTION_DDOT
IONOSFERA-M 2,2024-199B,2026-07-19T07:07:03.673920,14.22762952,.00006511,98.7128,73.0338,129.7769,230.3466,0,U,61736,999,13539,.18706704E-4,-.2E-7,0
PRSC-EO1,2025-012A,2026-07-19T07:13:19.756704,15.17649351,.00070667,97.4209,272.1306,134.9509,225.2299,0,U,62725,999,8306,.1641459E-3,.3239E-4,0
BIOMASS,2025-090A,2026-07-19T01:57:54.236736,14.67534911,.0001415,98.0750,26.9327,90.6799,269.4567,0,U,63772,999,6536,.49337347E-4,.232E-5,0
GOSAT-GW (IBUKI GW),2025-141A,2026-07-19T07:17:12.475968,14.67554813,.00014426,98.0564,137.0990,85.7008,274.4361,0,U,64694,999,5655,.19674013E-4,.64E-6,0
IONOSFERA-M 3,2025-155A,2026-07-19T06:32:36.109824,14.21491225,.00023922,98.6043,161.3733,106.3958,253.7482,0,U,64876,999,5096,.26636697E-4,.15E-6,0
IONOSFERA-M 4,2025-155B,2026-07-19T07:22:41.640096,14.21493666,.0001881,98.6042,161.3243,95.5003,264.6390,0,U,64877,999,5096,.23842056E-4,.9E-7,0
MICROCARB,2025-156A,2026-07-19T05:15:17.920224,14.72887681,.00179335,98.0072,276.8644,158.2510,201.9463,0,U,64899,999,5268,.46927388E-4,.251E-5,0
CO3D 3,2025-156B,2026-07-19T05:50:23.842464,15.20209739,.00017607,97.4331,278.4758,93.8761,266.2675,0,U,64900,999,5440,.10083583E-3,.2116E-4,0
CO3D 4,2025-156C,2026-07-19T05:50:36.995136,15.20208731,.00019268,97.4335,278.4758,148.1807,211.9545,0,U,64901,999,5440,.45165644E-4,.91E-5,0
CO3D 2,2025-156D,2026-07-19T06:37:22.823904,15.20195135,.00011747,97.4332,278.4068,91.5738,268.5632,0,U,64902,999,5440,.95664949E-4,.2003E-4,0
CO3D 1,2025-156E,2026-07-19T06:37:36.252192,15.20196811,.00013067,97.4331,278.4068,101.8671,258.2711,0,U,64903,999,5440,.96980023E-4,.2032E-4,0
PRSC-S1,2025-164A,2026-07-19T03:36:46.546272,15.06654920,.00072785,41.1302,107.7626,222.0172,138.0084,0,U,65055,999,5325,.17358311E-3,.2443E-4,0
SENTINEL-6B,2025-264A,2026-07-19T00:27:11.902464,12.80930222,.00078446,66.0411,69.0646,268.6081,91.4036,0,U,66514,999,3124,.24711764E-4,-.55E-6,0
CAS500-3,2025-274F,2026-07-19T05:11:45.014208,14.88388900,.00059556,97.7433,127.5391,26.8009,333.3515,0,U,66655,999,3491,.69228414E-4,.588E-5,0
CSG-3,2026-001A,2026-07-19T01:32:11.879232,14.82159223,.00018737,97.8908,23.2063,97.7023,262.4403,0,U,67304,999,2918,.20137944E-4,.108E-5,0
PRSC-E03,2026-092A,2026-07-19T06:19:48.859680,15.06818693,.00050406,38.0007,260.5100,276.2552,83.7636,0,U,68835,999,1279,.73082147E-4,.999E-5,0
CAS500-2,2026-100AK,2026-07-19T04:45:10.878048,15.19749984,.00080287,97.3851,97.4379,236.6095,123.4372,0,U,69013,999,1167,.13902678E-3,.2907E-4,0
